STARLINK-31500          
1 59305U 24056K   26068.49365896 -.00002488  00000+0 -80925-4 0  9992
2 59305  42.9972 231.8707 0001304 183.2454 176.8390 15.27579367111122
KUIPER-00266            
1 67789U 26030AB  26067.91293632  .00029701  00000+0  98220-3 0  9996
2 67789  51.8807 223.5904 0022313  72.5291 287.8129 15.30874235  4964
